{"type": "FeatureCollection", "features": [ {"type": "Feature", "properties": {"norad_id": 34611, "name": "COSMOS 2251 DEB", "group": "cosmos-2251-debris", "lat": 27.599044481819924, "lon": 80.39785563375732, "alt_km": 657.3179468017834, "timestamp": "2025-12-27T19:21:59.139944+00:00", "meta": {"OBJECT_NAME": "COSMOS 2251 DEB", "OBJECT_ID": "1993-036WG", "EPOCH": "2025-12-27T11:08:04.471296", "MEAN_MOTION": 14.69758533, "ECCENTRICITY": 0.0021286, "INCLINATION": 74.0532, "RA_OF_ASC_NODE": 72.4651, "ARG_OF_PERICENTER": 108.156, "MEAN_ANOMALY": 266.9114, "EPHEMERIS_TYPE": 0, "CLASSIFICATION_TYPE": "U", "NORAD_CAT_ID": 34611, "ELEMENT_SET_NO": 999, "REV_AT_EPOCH": 88607, "BSTAR": 0.0014921, "MEAN_MOTION_DOT": 8.911e-05, "MEAN_MOTION_DDOT": 0}, "tle": {"line1": "1 34611U 93036WG  25361.46394064  .00008911  00000+0  14921-2 0  9996", "line2": "2 34611  74.0532  72.4651 0021286 108.1560 266.9114 14.69758533886072"}}, "geometry": {"type": "Point", "coordinates": [80.39785563375732, 27.599044481819924]}}, {"type": "Feature", "properties": {"norad_id": 34613, "name": "COSMOS 2251 DEB", "group": "cosmos-2251-debris", "lat": -59.22904415784703, "lon": -137.69293952379843, "alt_km": 872.9981561535951, "timestamp": "2025-12-27T19:21:59.139953+00:00", "meta": {"OBJECT_NAME": "COSMOS 2251 DEB", "OBJECT_ID": "1993-036WJ", "EPOCH": "2025-12-27T03:31:38.144928", "MEAN_MOTION": 14.26519708, "ECCENTRICITY": 0.01108789, "INCLINATION": 73.963, "RA_OF_ASC_NODE": 252.3905, "ARG_OF_PERICENTER": 80.522, "MEAN_ANOMALY": 69.0312, "EPHEMERIS_TYPE": 0, "CLASSIFICATION_TYPE": "U", "NORAD_CAT_ID": 34613, "ELEMENT_SET_NO": 999, "REV_AT_EPOCH": 86668, "BSTAR": 0.0013470224, "MEAN_MOTION_DOT": 3.441e-05, "MEAN_MOTION_DDOT": 0}, "tle": {"line1": "1 34613U 93036WJ  25361.14696927  .00003441  00000+0  13470-2 0  9997", "line2": "2 34613  73.9630 252.3905 0110878  80.5220  69.0312 14.26519708866683"}}, "geometry": {"type": "Point", "coordinates": [-137.69293952379843, -59.22904415784703]}}, {"type": "Feature", "properties": {"norad_id": 34614, "name": "COSMOS 2251 DEB", "group": "cosmos-2251-debris", "lat": 72.0556326696286, "lon": 73.53056293488785, "alt_km": 946.2295369933208, "timestamp": "2025-12-27T19:21:59.139962+00:00", "meta": {"OBJECT_NAME": "COSMOS 2251 DEB", "OBJECT_ID": "1993-036WK", "EPOCH": "2025-12-24T21:37:08.839200", "MEAN_MOTION": 14.17833523, "ECCENTRICITY": 0.0196231, "INCLINATION": 73.8822, "RA_OF_ASC_NODE": 321.9977, "ARG_OF_PERICENTER": 314.2153, "MEAN_ANOMALY": 74.3764, "EPHEMERIS_TYPE": 0, "CLASSIFICATION_TYPE": "U", "NORAD_CAT_ID": 34614, "ELEMENT_SET_NO": 999, "REV_AT_EPOCH": 84939, "BSTAR": 0.0067486, "MEAN_MOTION_DOT": 0.0001667, "MEAN_MOTION_DDOT": 0}, "tle": {"line1": "1 34614U 93036WK  25358.90079675  .00016670  00000+0  67486-2 0  9997", "line2": "2 34614  73.8822 321.9977 0196231 314.2153  74.3764 14.17833523849390"}}, "geometry": {"type": "Point", "coordinates": [73.53056293488785, 72.0556326696286]}}, {"type": "Feature", "properties": {"norad_id": 34615, "name": "COSMOS 2251 DEB", "group": "cosmos-2251-debris", "lat": 34.98187117766311, "lon": -78.44532747925857, "alt_km": 1274.4634858766976, "timestamp": "2025-12-27T19:21:59.139971+00:00", "meta": {"OBJECT_NAME": "COSMOS 2251 DEB", "OBJECT_ID": "1993-036WL", "EPOCH": "2025-12-27T05:45:20.957760", "MEAN_MOTION": 13.52208389, "ECCENTRICITY": 0.0400067, "INCLINATION": 74.0044, "RA_OF_ASC_NODE": 270.8855, "ARG_OF_PERICENTER": 174.9868, "MEAN_ANOMALY": 345.2607, "EPHEMERIS_TYPE": 0, "CLASSIFICATION_TYPE": "U", "NORAD_CAT_ID": 34615, "ELEMENT_SET_NO": 999, "REV_AT_EPOCH": 83011, "BSTAR": 0.00030471, "MEAN_MOTION_DOT": 3.12e-06, "MEAN_MOTION_DDOT": 0}, "tle": {"line1": "1 34615U 93036WL  25361.23982590  .00000312  00000+0  30471-3 0  9998", "line2": "2 34615  74.0044 270.8855 0400067 174.9868 345.2607 13.52208389830116"}}, "geometry": {"type": "Point", "coordinates": [-78.44532747925857, 34.98187117766311]}}, {"type": "Feature", "properties": {"norad_id": 34619, "name": "COSMOS 2251 DEB", "group": "cosmos-2251-debris", "lat": -69.63734875638286, "lon": 120.55016624988713, "alt_km": 622.3026664614335, "timestamp": "2025-12-27T19:21:59.139981+00:00", "meta": {"OBJECT_NAME": "COSMOS 2251 DEB", "OBJECT_ID": "1993-036WQ", "EPOCH": "2025-12-27T04:57:42.584832", "MEAN_MOTION": 14.64682848, "ECCENTRICITY": 0.0094713, "INCLINATION": 74.043, "RA_OF_ASC_NODE": 172.138, "ARG_OF_PERICENTER": 263.6994, "MEAN_ANOMALY": 95.338, "EPHEMERIS_TYPE": 0, "CLASSIFICATION_TYPE": "U", "NORAD_CAT_ID": 34619, "ELEMENT_SET_NO": 999, "REV_AT_EPOCH": 89510, "BSTAR": 0.00029362, "MEAN_MOTION_DOT": 1.634e-05, "MEAN_MOTION_DDOT": 0}, "tle": {"line1": "1 34619U 93036WQ  25361.20674288  .00001634  00000+0  29362-3 0  9996", "line2": "2 34619  74.0430 172.1380 0094713 263.6994  95.3380 14.64682848895100"}}, "geometry": {"type": "Point", "coordinates": [120.55016624988713, -69.63734875638286]}}, {"type": "Feature", "properties": {"norad_id": 34620, "name": "COSMOS 2251 DEB", "group": "cosmos-2251-debris", "lat": 41.09373764153426, "lon": -154.2588026216648, "alt_km": 780.5526531275827, "timestamp": "2025-12-27T19:21:59.139990+00:00", "meta": {"OBJECT_NAME": "COSMOS 2251 DEB", "OBJECT_ID": "1993-036WR", "EPOCH": "2025-12-26T15:00:09.946368", "MEAN_MOTION": 14.49319824, "ECCENTRICITY": 0.0079363, "INCLINATION": 74.0513, "RA_OF_ASC_NODE": 193.5129, "ARG_OF_PERICENTER": 226.8087, "MEAN_ANOMALY": 132.6426, "EPHEMERIS_TYPE": 0, "CLASSIFICATION_TYPE": "U", "NORAD_CAT_ID": 34620, "ELEMENT_SET_NO": 999, "REV_AT_EPOCH": 87028, "BSTAR": 0.0024508, "MEAN_MOTION_DOT": 9.725e-05, "MEAN_MOTION_DDOT": 0}, "tle": {"line1": "1 34620U 93036WR  25360.62511512  .00009725  00000+0  24508-2 0  9998", "line2": "2 34620  74.0513 193.5129 0079363 226.8087 132.6426 14.49319824870282"}}, "geometry": {"type": "Point", "coordinates": [-154.2588026216648, 41.09373764153426]}}, {"type": "Feature", "properties": {"norad_id": 34622, "name": "COSMOS 2251 DEB", "group": "cosmos-2251-debris", "lat": 9.500393836919718, "lon": -77.27741513586413, "alt_km": 745.3439345534871, "timestamp": "2025-12-27T19:21:59.139999+00:00", "meta": {"OBJECT_NAME": "COSMOS 2251 DEB", "OBJECT_ID": "1993-036WT", "EPOCH": "2025-12-26T11:47:44.253024", "MEAN_MOTION": 14.22098383, "ECCENTRICITY": 0.0105003, "INCLINATION": 74.0424, "RA_OF_ASC_NODE": 282.3374, "ARG_OF_PERICENTER": 1.5352, "MEAN_ANOMALY": 116.3755, "EPHEMERIS_TYPE": 0, "CLASSIFICATION_TYPE": "U", "NORAD_CAT_ID": 34622, "ELEMENT_SET_NO": 999, "REV_AT_EPOCH": 86655, "BSTAR": 0.00087348, "MEAN_MOTION_DOT": 2.02e-05, "MEAN_MOTION_DDOT": 0}, "tle": {"line1": "1 34622U 93036WT  25360.49148441  .00002020  00000+0  87348-3 0  9995", "line2": "2 34622  74.0424 282.3374 0105003   1.5352 116.3755 14.22098383866552"}}, "geometry": {"type": "Point", "coordinates": [-77.27741513586413, 9.500393836919718]}}, {"type": "Feature", "properties": {"norad_id": 34626, "name": "COSMOS 2251 DEB", "group": "cosmos-2251-debris", "lat": 33.948099377383926, "lon": -54.30210210787274, "alt_km": 632.6210436097499, "timestamp": "2025-12-27T19:21:59.140008+00:00", "meta": {"OBJECT_NAME": "COSMOS 2251 DEB", "OBJECT_ID": "1993-036WX", "EPOCH": "2025-12-27T05:03:30.604032", "MEAN_MOTION": 14.7238114, "ECCENTRICITY": 0.0027226, "INCLINATION": 74.0482, "RA_OF_ASC_NODE": 295.7551, "ARG_OF_PERICENTER": 20.0689, "MEAN_ANOMALY": 96.7371, "EPHEMERIS_TYPE": 0, "CLASSIFICATION_TYPE": "U", "NORAD_CAT_ID": 34626, "ELEMENT_SET_NO": 999, "REV_AT_EPOCH": 89357, "BSTAR": 0.0012251, "MEAN_MOTION_DOT": 7.78e-05, "MEAN_MOTION_DDOT": 0}, "tle": {"line1": "1 34626U 93036WX  25361.21077088  .00007780  00000+0  12251-2 0  9996", "line2": "2 34626  74.0482 295.7551 0027226  20.0689  96.7371 14.72381140893572"}}, "geometry": {"type": "Point", "coordinates": [-54.30210210787274, 33.948099377383926]}}, {"type": "Feature", "properties": {"norad_id": 34634, "name": "COSMOS 2251 DEB", "group": "cosmos-2251-debris", "lat": 20.316803894734456, "lon": 12.523611981894549, "alt_km": 705.5276625418519, "timestamp": "2025-12-27T19:21:59.140017+00:00", "meta": {"OBJECT_NAME": "COSMOS 2251 DEB", "OBJECT_ID": "1993-036XF", "EPOCH": "2025-12-27T01:24:44.209728", "MEAN_MOTION": 14.55697426, "ECCENTRICITY": 0.00436319, "INCLINATION": 74.0512, "RA_OF_ASC_NODE": 7.8617, "ARG_OF_PERICENTER": 110.8504, "MEAN_ANOMALY": 312.1566, "EPHEMERIS_TYPE": 0, "CLASSIFICATION_TYPE": "U", "NORAD_CAT_ID": 34634, "ELEMENT_SET_NO": 999, "REV_AT_EPOCH": 88990, "BSTAR": 0.00035601002, "MEAN_MOTION_DOT": 1.547e-05, "MEAN_MOTION_DDOT": 0}, "tle": {"line1": "1 34634U 93036XF  25361.05884502  .00001547  00000+0  35601-3 0  9994", "line2": "2 34634  74.0512   7.8617 0043631 110.8504 312.1566 14.55697426889903"}}, "geometry": {"type": "Point", "coordinates": [12.523611981894549, 20.316803894734456]}}, {"type": "Feature", "properties": {"norad_id": 34635, "name": "COSMOS 2251 DEB", "group": "cosmos-2251-debris", "lat": -29.733556959463254, "lon": -129.0014276041199, "alt_km": 676.9458115297166, "timestamp": "2025-12-27T19:21:59.140026+00:00", "meta": {"OBJECT_NAME": "COSMOS 2251 DEB", "OBJECT_ID": "1993-036XG", "EPOCH": "2025-12-27T03:56:58.020288", "MEAN_MOTION": 14.68441224, "ECCENTRICITY": 0.00275844, "INCLINATION": 74.0456, "RA_OF_ASC_NODE": 42.8356, "ARG_OF_PERICENTER": 106.2824, "MEAN_ANOMALY": 309.9223, "EPHEMERIS_TYPE": 0, "CLASSIFICATION_TYPE": "U", "NORAD_CAT_ID": 34635, "ELEMENT_SET_NO": 999, "REV_AT_EPOCH": 73431, "BSTAR": 0.0011899124, "MEAN_MOTION_DOT": 6.904e-05, "MEAN_MOTION_DDOT": 0}, "tle": {"line1": "1 34635U 93036XG  25361.16456042  .00006904  00000+0  11899-2 0  9995", "line2": "2 34635  74.0456  42.8356 0027584 106.2824 309.9223 14.68441224734318"}}, "geometry": {"type": "Point", "coordinates": [-129.0014276041199, -29.733556959463254]}}]}